NORAD_CAT_ID,OBJECT_NAME,OBJECT_TYPE,EPOCH,MEAN_MOTION,ECCENTRICITY,INCLINATION,RA_OF_ASC_NODE,ARG_OF_PERICENTER,MEAN_ANOMALY,BSTAR,MEAN_MOTION_DOT,MEAN_MOTION_DDOT,TLE_LINE0,TLE_LINE1,TLE_LINE2,SEMIMAJOR_AXIS,PERIOD,APOGEE,PERIGEE,DECAYED
52629.0,STARLINK-4022,PAYLOAD,2022-09-02 04:00:00,15.08848165,0.0001587,53.2178,275.5592,51.6071,211.9262,-0.00081902,-0.00013302,0.0,0 STARLINK-4022,1 52629U 22052AH  22245.16667824 -.00013302  00000-0 -81902-3 0  9994,2 52629  53.2178 275.5592 0001587  51.6071 211.9262 15.08848165 17443,6917.855,95.437,540.818,538.623,0.0
52629.0,STARLINK-4022,PAYLOAD,2022-09-02 14:00:01,15.08827464,0.0001743,53.2173,273.69,43.6639,324.3658,0.0015335999999999,0.00024195,0.0,0 STARLINK-4022,1 52629U 22052AH  22245.58334491  .00024195  00000-0  15336-2 0  9998,2 52629  53.2173 273.6900 0001743  43.6639 324.3658 15.08827464  1300,6917.919,95.438,540.989,538.578,0.0
52629.0,STARLINK-4022,PAYLOAD,2022-09-02 22:00:01,15.08816953,0.0001557,53.2173,272.1919,50.862,328.8306,0.0026138,0.0004153,0.0,0 STARLINK-4022,1 52629U 22052AH  22245.91668981  .00041530  00000-0  26138-2 0  9993,2 52629  53.2173 272.1919 0001557  50.8620 328.8306 15.08816953  1307,6917.951,95.439,540.893,538.739,0.0
52629.0,STARLINK-4022,PAYLOAD,2022-09-03 04:00:00,15.08858445,0.0001609,53.2176,271.0704,52.1868,246.126,-0.0011514,-0.00018575,0.0,0 STARLINK-4022,1 52629U 22052AH  22246.16667824 -.00018575  00000-0 -11514-2 0  9993,2 52629  53.2176 271.0704 0001609  52.1868 246.1260 15.08858445 17598,6917.824000000001,95.436,540.802,538.576,0.0
52629.0,STARLINK-4022,PAYLOAD,2022-09-03 14:00:01,15.0884006,0.0001766999999999,53.2169,269.201,44.6674,358.1525,0.0012449,0.0001958,0.0,0 STARLINK-4022,1 52629U 22052AH  22246.58334491  .00019580  00000-0  12449-2 0  9993,2 52629  53.2169 269.2010 0001767  44.6674 358.1525 15.08840060  1309,6917.88,95.438,540.9680000000002,538.523,0.0
52629.0,STARLINK-4022,PAYLOAD,2022-09-03 22:00:00,15.08826853,0.0001587,53.2169,267.703,51.56100000000001,2.8710000000000004,0.0028566,0.00045452,0.0,0 STARLINK-4022,1 52629U 22052AH  22246.91667824  .00045452  00000-0  28566-2 0  9993,2 52629  53.2169 267.7030 0001587  51.5610   2.8710 15.08826853  1304,6917.920999999999,95.438,540.883,538.688,0.0
52629.0,STARLINK-4022,PAYLOAD,2022-09-04 04:00:00,15.088833,0.0001629999999999,53.217,266.5814,51.5905,281.5333,-0.0037631,-0.00059752,0.0,0 STARLINK-4022,1 52629U 22052AH  22247.16667824 -.00059752  00000-0 -37631-2 0  9994,2 52629  53.2170 266.5814 0001630  51.5905 281.5333 15.08883300 17752,6917.748000000001,95.435,540.741,538.485,0.0
52629.0,STARLINK-4022,PAYLOAD,2022-09-04 14:00:01,15.08831036,0.0001739,53.2165,264.7119,42.7105,34.9936,0.0011026,0.00017299,0.0,0 STARLINK-4022,1 52629U 22052AH  22247.58335648  .00017299  00000-0  11026-2 0  9994,2 52629  53.2165 264.7119 0001739  42.7105  34.9936 15.08831036  1300,6917.908,95.438,540.976,538.57,0.0
52629.0,STARLINK-4022,PAYLOAD,2022-09-04 16:00:00,15.0885053,0.0001706,53.2165,264.3374,44.8137,125.7198,-0.0013763,-0.00022132,0.0,0 STARLINK-4022,1 52629U 22052AH  22247.66667824 -.00022132  00000-0 -13763-2 0  9991,2 52629  53.2165 264.3374 0001706  44.8137 125.7198 15.08850530 17824,6917.848000000001,95.437,540.893,538.533,0.0
52629.0,STARLINK-4022,PAYLOAD,2022-09-04 20:00:01,15.08827755,0.0001601,53.2166,263.5884,48.4373,307.9025,0.0014264,0.00022478,0.0,0 STARLINK-4022,1 52629U 22052AH  22247.83334491  .00022478  00000-0  14264-2 0  9999,2 52629  53.2166 263.5884 0001601  48.4373 307.9025 15.08827755  1300,6917.918000000002,95.438,540.89,538.675,0.0
52629.0,STARLINK-4022,PAYLOAD,2022-09-05 04:00:00,15.08876691,0.0001641,53.2167,262.0925,48.6755,319.2485,-0.0038403,-0.00060951,0.0,0 STARLINK-4022,1 52629U 22052AH  22248.16667824 -.00060951  00000-0 -38403-2 0  9996,2 52629  53.2167 262.0925 0001641  48.6755 319.2485 15.08876691 17903,6917.768,95.435,540.768,538.498,0.0
52629.0,STARLINK-4022,PAYLOAD,2022-09-05 14:00:01,15.08826858,0.0001746,53.2163,260.2229,40.5996,71.8274,0.00069151,0.00010731,0.0,0 STARLINK-4022,1 52629U 22052AH  22248.58334491  .00010731  00000-0  69151-3 0  9997,2 52629  53.2163 260.2229 0001746  40.5996  71.8274 15.08826858  1304,6917.920999999999,95.438,540.993,538.578,0.0
52629.0,STARLINK-4022,PAYLOAD,2022-09-05 20:00:01,15.08814508,0.000161,53.2165,259.0993,46.2198,344.8987,0.0018261,0.00028874,0.0,0 STARLINK-4022,1 52629U 22052AH  22248.83334491  .00028874  00000-0  18261-2 0  9997,2 52629  53.2165 259.0993 0001610  46.2198 344.8987 15.08814508 18005,6917.958000000001,95.439,540.937,538.71,0.0
52629.0,STARLINK-4022,PAYLOAD,2022-09-05 22:00:00,15.08813887,0.0001619,53.2163,258.725,47.287,76.7265,0.0022558,0.0003577,0.0,0 STARLINK-4022,1 52629U 22052AH  22248.91667824  .00035770  00000-0  22558-2 0  9992,2 52629  53.2163 258.7250 0001619  47.2870  76.7265 15.08813887  1306,6917.96,95.439,540.945,538.705,0.0
52629.0,STARLINK-4022,PAYLOAD,2022-09-06 12:00:00,15.08797153,0.0001935,53.2163,256.1084,44.0141,10.2683,0.0027975,0.00044463,0.0,0 STARLINK-4022,1 52629U 22052AH  22249.50001157  .00044463  00000-0  27975-2 0  9996,2 52629  53.2163 256.1084 0001935  44.0141  10.2683 15.08797153 18100,6918.011,95.44,541.215,538.538,0.0
52629.0,STARLINK-4022,PAYLOAD,2022-09-06 14:00:01,15.08821054,0.0001931,53.2162,255.7339,44.4227,102.7432,0.00010335,1.356e-05,0.0,0 STARLINK-4022,1 52629U 22052AH  22249.58334491  .00001356  00000-0  10335-3 0  9991,2 52629  53.2162 255.7339 0001931  44.4227 102.7432 15.08821054  1303,6917.938,95.439,541.139,538.467,0.0
52629.0,STARLINK-4022,PAYLOAD,2022-09-06 20:00:01,15.08800602,0.0001779,53.2165,254.6103,49.1661,16.6837,0.0021822,0.00034575,0.0,0 STARLINK-4022,1 52629U 22052AH  22249.83334491  .00034575  00000-0  21822-2 0  9990,2 52629  53.2165 254.6103 0001779  49.1661  16.6837 15.08800602 18156,6918.001,95.44,541.097,538.635,0.0
52629.0,STARLINK-4022,PAYLOAD,2022-09-06 22:00:00,15.08801419,0.0001791,53.2164,254.236,50.293,108.4474,0.0026038,0.00041351,0.0,0 STARLINK-4022,1 52629U 22052AH  22249.91667824  .00041351  00000-0  26038-2 0  9992,2 52629  53.2164 254.2360 0001791  50.2930 108.4474 15.08801419  1305,6917.998000000001,95.44,541.102,538.624,0.0
52629.0,STARLINK-4022,PAYLOAD,2022-09-07 12:00:00,15.08815856,0.0002024,53.2164,251.6193,44.75100000000001,44.247,0.0024006,0.000381,0.0,0 STARLINK-4022,1 52629U 22052AH  22250.50001157  .00038100  00000-0  24006-2 0  9991,2 52629  53.2164 251.6193 0002024  44.7510  44.2470 15.08815856 18257,6917.954000000002,95.439,541.219,538.419,0.0
52629.0,STARLINK-4022,PAYLOAD,2022-09-07 14:00:01,15.08840792,0.0002005999999999,53.2163,251.2448,45.9322,135.954,-0.00055473,-9.106e-05,0.0,0 STARLINK-4022,1 52629U 22052AH  22250.58334491 -.00009106  00000-0 -55473-3 0  9998,2 52629  53.2163 251.2448 0002006  45.9322 135.9540 15.08840792  1300,6917.878000000002,95.438,541.131,538.355,0.0
52629.0,STARLINK-4022,PAYLOAD,2022-09-07 22:00:00,15.09035954,0.0001859,53.217,249.7482,52.558,140.82399999999996,-0.017605,-0.00271536,0.0,0 STARLINK-4022,1 52629U 22052AH  22250.91667824 -.00271536  00000-0 -17605-1 0  9995,2 52629  53.2170 249.7482 0001859  52.5580 140.8240 15.09035954  1302,6917.281999999997,95.425,540.432,537.861,0.0
52629.0,STARLINK-4022,PAYLOAD,2022-09-08 04:00:00,15.0884706,0.0001431999999999,53.2166,248.6258,48.8581,63.2256,-0.0016309999999999,-0.00026156,0.0,0 STARLINK-4022,1 52629U 22052AH  22251.16667824 -.00026156  00000-0 -16310-2 0  9992,2 52629  53.2166 248.6258 0001432  48.8581  63.2256 15.08847060 18358,6917.859,95.437,540.714,538.7330000000002,0.0
52629.0,STARLINK-4022,PAYLOAD,2022-09-08 14:00:01,15.08849491,0.0001499,53.2164,246.7555,44.6174,171.9487,-0.0011768,-0.00018973,0.0,0 STARLINK-4022,1 52629U 22052AH  22251.58334491 -.00018973  00000-0 -11768-2 0  9999,2 52629  53.2164 246.7555 0001499  44.6174 171.9487 15.08849491  1300,6917.851,95.437,540.753,538.679,0.0
52629.0,STARLINK-4022,PAYLOAD,2022-09-08 20:00:01,15.08822092,0.0001337,53.2166,245.632,50.1466,85.1295,0.0027545,0.00043801,0.0,0 STARLINK-4022,1 52629U 22052AH  22251.83334491  .00043801  00000-0  27545-2 0  9993,2 52629  53.2166 245.6320 0001337  50.1466  85.1295 15.08822092 18452,6917.935,95.439,540.725,538.875,0.0
52629.0,STARLINK-4022,PAYLOAD,2022-09-08 22:00:00,15.08829222,0.000135,53.2166,245.2577,52.5247,175.6471,0.0025204,0.0004004,0.0,0 STARLINK-4022,1 52629U 22052AH  22251.91667824  .00040040  00000-0  25204-2 0  9993,2 52629  53.2166 245.2577 0001350  52.5247 175.6471 15.08829222  1309,6917.913000000001,95.438,540.712,538.844,0.0
52629.0,STARLINK-4022,PAYLOAD,2022-09-09 14:00:01,15.08872257,0.0001498,53.2164,242.266,46.4595,204.9169,-0.0015145999999999,-0.00024333,0.0,0 STARLINK-4022,1 52629U 22052AH  22252.58334491 -.00024333  00000-0 -15146-2 0  9991,2 52629  53.2164 242.2660 0001498  46.4595 204.9169 15.08872257  1304,6917.781999999997,95.436,540.683,538.611,0.0
52629.0,STARLINK-4022,PAYLOAD,2022-09-09 22:00:00,15.08860972,0.0001404,53.2167,240.7683,55.8179,207.183,-0.00033912,-5.684e-05,0.0,0 STARLINK-4022,1 52629U 22052AH  22252.91667824 -.00005684  00000-0 -33912-3 0  9997,2 52629  53.2167 240.7683 0001404  55.8179 207.1830 15.08860972  1305,6917.816,95.436,540.653,538.71,0.0
52629.0,STARLINK-4022,PAYLOAD,2022-09-10 04:00:00,15.08857114,0.000155,53.2167,239.6473,52.8936,128.8215,-0.002092,-0.00033444,0.0,0 STARLINK-4022,1 52629U 22052AH  22253.16667824 -.00033444  00000-0 -20920-2 0  9994,2 52629  53.2167 239.6473 0001550  52.8936 128.8215 15.08857114 18655,6917.828,95.436,540.765,538.621,0.0
52629.0,STARLINK-4022,PAYLOAD,2022-09-10 12:00:00,15.08844086,0.0001638,53.2164,238.1512,49.7507,143.5679,0.00066305,0.00010281,0.0,0 STARLINK-4022,1 52629U 22052AH  22253.50001157  .00010281  00000-0  66305-3 0  9993,2 52629  53.2164 238.1512 0001638  49.7507 143.5679 15.08844086 18704,6917.868,95.437,540.866,538.6,0.0
